[{"OBJECT_NAME":"STARLINK-6029","OBJECT_ID":"2023-078AN","EPOCH":"2026-03-09T23:24:27.768096","MEAN_MOTION":14.98329288,"ECCENTRICITY":0.00028402,"INCLINATION":70.0008,"RA_OF_ASC_NODE":343.7116,"ARG_OF_PERICENTER":268.0414,"MEAN_ANOMALY":92.042,"EPHEMERIS_TYPE":0,"CLASSIFICATION_TYPE":"U","NORAD_CAT_ID":56803,"ELEMENT_SET_NO":999,"REV_AT_EPOCH":15272,"BSTAR":-3.8886079e-5,"MEAN_MOTION_DOT":-5.57e-6,"MEAN_MOTION_DDOT":0},{"OBJECT_NAME":"SATELIOT_3","OBJECT_ID":"2024-149CN","EPOCH":"2026-03-09T19:09:09.165600","MEAN_MOTION":14.97601684,"ECCENTRICITY":0.00058308,"INCLINATION":97.6866,"RA_OF_ASC_NODE":147.0596,"ARG_OF_PERICENTER":63.3535,"MEAN_ANOMALY":296.8284,"EPHEMERIS_TYPE":0,"CLASSIFICATION_TYPE":"U","NORAD_CAT_ID":60552,"ELEMENT_SET_NO":999,"REV_AT_EPOCH":8520,"BSTAR":0.00025002978,"MEAN_MOTION_DOT":2.865e-5,"MEAN_MOTION_DDOT":0}]
